format  = 'OEF2.0'       ! file format
rectype = 'ML'           ! record type (1L/ML)
refsys  = ECLM J2000     ! default reference system
END_OF_HEADER
99942
! Keplerian elements: a, e, i, long. node, arg. peric., mean anomaly
 KEP   9.2269886736945861E-01   0.191432363588237    3.338871063790  203.965677120949  126.590200404569  333.246586621592
 MJD     59400.000000000 TDT
 MAG  18.937  0.150
! Non-gravitational parameters: model used, number of model parameters, dimension, list of solve for parameters to be currently determined
 LSP   1  2    7    2
! Vector of dynamical parameters
! Area-to-mass ratio [m^2/t], Yarkovsky parameter [1E-10 au/day^2]
 NGR   0.00000000000000E+00 -2.90058798774592E-04
! PERIHELION   7.4606444230873448E-01
! APHELION   1.0993332924301829E+00
! ANODE   1.7332557402763152E-04
! DNODE  -1.9943018007442770E-01
! MOID   5.0131935660823443E-05
! PERIOD   3.2373407064637291E+02
! PHA T
! VINFTY     5.4765991101528
! U_PAR 0.0
! ORB_TYPE Aten  
! RMS    8.56356E-11   1.42117E-09   1.60002E-07   7.87827E-06   8.45885E-06   1.18224E-06   2.35576E-06
 COV   7.333454159870579E-21 -1.072918182236659E-19 -4.176671692841386E-18
 COV   9.884855072605854E-17 -1.661415694105944E-16  6.524001427933614E-17
 COV   1.597275681844029E-16  2.019717867999143E-18  7.453443457573882E-17
 COV  -2.218919293658890E-15  3.445852238191066E-15 -1.246500258007324E-15
 COV  -1.955610591737736E-15  2.560049020716497E-14 -1.198456511546948E-12
 COV   1.308002126865156E-12 -1.641254199121557E-13 -2.361241193577065E-13
 COV   6.206715888043304E-11 -6.634024155022408E-11  7.109226523616469E-12
 COV   1.033311074616798E-11  7.155222227180351E-11 -8.205136372599239E-12
 COV  -1.199513342097129E-11  1.397697202827495E-12  2.027096482959609E-12
 COV   5.549616302269252E-12
 COR   1.000000000000000E+00 -8.815906196369117E-01 -3.048259299337061E-01
 COR   1.465160097316719E-01 -2.293572403303417E-01  6.443965529496013E-01
 COR   7.917610081315467E-01  1.000000000000000E+00  3.277837856645864E-01
 COR  -1.981824621243634E-01  2.866419392720229E-01 -7.418916291588850E-01
 COR  -5.841246695483345E-01  1.000000000000000E+00 -9.507519080434512E-01
 COR   9.664352144192019E-01 -8.676511795146528E-01 -6.264475742171590E-01
 COR   9.999999999999998E-01 -9.954846142168732E-01  7.632817375542019E-01
 COR   5.567608284147103E-01  9.999999999999999E-01 -8.204794201852713E-01
 COR  -6.019522484657190E-01  1.000000000000000E+00  7.278407944027667E-01
 COR   1.000000000000000E+00
